start=new Date('2022-11-01T00:00:00.000Z').valueOf();
sats=[{"ARG_OF_PERICENTER":"48.1243","OBJECT_TYPE":"PAYLOAD","FILE":"3639522","SEMIMAJOR_AXIS":"6925.378","SITE":"AFETR","TIME_SYSTEM":"UTC","MEAN_ANOMALY":"311.9929","LAUNCH_DATE":"2020-06-13","APOAPSIS":"548.733","CENTER_NAME":"EARTH","MEAN_MOTION":"15.06390338","TLE_LINE2":"2 45773  53.0542 295.5661 0002151  48.1243 311.9929 15.06390338132134","OBJECT_NAME":"STARLINK-1482","INCLINATION":"53.0542","MEAN_MOTION_DOT":"-0.00000989","OBJECT_ID":"2020-038AV","PERIOD":"95.593","COUNTRY_CODE":"US","REV_AT_EPOCH":"13213","CLASSIFICATION_TYPE":"U","TLE_LINE1":"1 45773U 20038AV  22304.75582088 -.00000989  00000-0 -47471-4 0  9998","ELEMENT_SET_NO":"999","REF_FRAME":"TEME","BSTAR":"-0.00004747100000","EPHEMERIS_TYPE":"0","PERIAPSIS":"545.754","ECCENTRICITY":"0.00021510","DECAY_DATE":null,"NORAD_CAT_ID":"45773","RCS_SIZE":"LARGE","RA_OF_ASC_NODE":"295.5661","EPOCH":"2022-10-31T18:08:22.924032","MEAN_MOTION_DDOT":"0.0000000000000","GP_ID":"216612796","MEAN_ELEMENT_THEORY":"SGP4"},{"APOAPSIS":"548.742","CENTER_NAME":"EARTH","MEAN_MOTION":"15.06390265","LAUNCH_DATE":"2020-06-13","SEMIMAJOR_AXIS":"6925.378","FILE":"3638467","SITE":"AFETR","TIME_SYSTEM":"UTC","MEAN_ANOMALY":"314.5656","OBJECT_TYPE":"PAYLOAD","ARG_OF_PERICENTER":"45.5510","COUNTRY_CODE":"US","REV_AT_EPOCH":"13319","CLASSIFICATION_TYPE":"U","PERIOD":"95.593","MEAN_MOTION_DOT":"-0.00001626","INCLINATION":"53.0545","OBJECT_ID":"2020-038AW","TLE_LINE2":"2 45774  53.0545 297.1936 0002164  45.5510 314.5656 15.06390265133195","OBJECT_NAME":"STARLINK-1485","NORAD_CAT_ID":"45774","DECAY_DATE":null,"RCS_SIZE":"LARGE","ECCENTRICITY":"0.00021640","BSTAR":"-0.00009027000000","REF_FRAME":"TEME","EPHEMERIS_TYPE":"0","PERIAPSIS":"545.745","TLE_LINE1":"1 45774U 20038AW  22304.39459072 -.00001626  00000-0 -90270-4 0  9999","ELEMENT_SET_NO":"999","MEAN_ELEMENT_THEORY":"SGP4","EPOCH":"2022-10-31T09:28:12.638208","GP_ID":"216569820","MEAN_MOTION_DDOT":"0.0000000000000","RA_OF_ASC_NODE":"297.1936"},{"RA_OF_ASC_NODE":"297.1660","EPOCH":"2022-10-31T09:30:17.957952","GP_ID":"216559024","MEAN_MOTION_DDOT":"0.0000000000000","MEAN_ELEMENT_THEORY":"SGP4","TLE_LINE1":"1 45775U 20038AX  22304.39604118  .00018722  00000-0  12573-2 0  9994","ELEMENT_SET_NO":"999","REF_FRAME":"TEME","BSTAR":"0.00125730000000","PERIAPSIS":"543.931","EPHEMERIS_TYPE":"0","ECCENTRICITY":"0.00027800","DECAY_DATE":null,"NORAD_CAT_ID":"45775","RCS_SIZE":"LARGE","TLE_LINE2":"2 45775  53.0534 297.1660 0002780  71.4138 288.7153 15.06843229133047","OBJECT_NAME":"STARLINK-1488","MEAN_MOTION_DOT":"0.00018722","INCLINATION":"53.0534","OBJECT_ID":"2020-038AX","PERIOD":"95.564","COUNTRY_CODE":"US","REV_AT_EPOCH":"13304","CLASSIFICATION_TYPE":"U","OBJECT_TYPE":"PAYLOAD","ARG_OF_PERICENTER":"71.4138","SEMIMAJOR_AXIS":"6923.990","FILE":"3638046","SITE":"AFETR","TIME_SYSTEM":"UTC","MEAN_ANOMALY":"288.7153","LAUNCH_DATE":"2020-06-13","APOAPSIS":"547.780","CENTER_NAME":"EARTH","MEAN_MOTION":"15.06843229"},{"RCS_SIZE":"LARGE","NORAD_CAT_ID":"45776","DECAY_DATE":null,"ECCENTRICITY":"0.00024740","PERIAPSIS":"545.536","EPHEMERIS_TYPE":"0","BSTAR":"-0.00005559100000","REF_FRAME":"TEME","ELEMENT_SET_NO":"999","TLE_LINE1":"1 45776U 20038AY  22304.27296262 -.00001110  00000-0 -55591-4 0  9993","MEAN_ELEMENT_THEORY":"SGP4","GP_ID":"216575558","MEAN_MOTION_DDOT":"0.0000000000000","EPOCH":"2022-10-31T06:33:03.970368","RA_OF_ASC_NODE":"297.7359","MEAN_MOTION":"15.06388377","CENTER_NAME":"EARTH","APOAPSIS":"548.963","LAUNCH_DATE":"2020-06-13","SITE":"AFETR","MEAN_ANOMALY":"319.1426","TIME_SYSTEM":"UTC","SEMIMAJOR_AXIS":"6925.384","FILE":"3638715","ARG_OF_PERICENTER":"40.9748","OBJECT_TYPE":"PAYLOAD","CLASSIFICATION_TYPE":"U","REV_AT_EPOCH":"13317","COUNTRY_CODE":"US","PERIOD":"95.593","OBJECT_ID":"2020-038AY","MEAN_MOTION_DOT":"-0.00001110","INCLINATION":"53.0561","OBJECT_NAME":"STARLINK-1489","TLE_LINE2":"2 45776  53.0561 297.7359 0002474  40.9748 319.1426 15.06388377133171"},{"MEAN_ELEMENT_THEORY":"SGP4","GP_ID":"216613296","MEAN_MOTION_DDOT":"0.0000000000000","EPOCH":"2022-10-31T11:14:22.943040","RA_OF_ASC_NODE":"296.8588","RCS_SIZE":"LARGE","DECAY_DATE":null,"NORAD_CAT_ID":"45777","ECCENTRICITY":"0.00023790","PERIAPSIS":"545.603","EPHEMERIS_TYPE":"0","REF_FRAME":"TEME","BSTAR":"-0.00010202000000","ELEMENT_SET_NO":"999","TLE_LINE1":"1 45777U 20038AZ  22304.46832110 -.00001801  00000-0 -10202-3 0  9999","CLASSIFICATION_TYPE":"U","REV_AT_EPOCH":"13209","COUNTRY_CODE":"US","PERIOD":"95.593","OBJECT_ID":"2020-038AZ","INCLINATION":"53.0542","MEAN_MOTION_DOT":"-0.00001801","OBJECT_NAME":"STARLINK-1490","TLE_LINE2":"2 45777  53.0542 296.8588 0002379  36.9855 323.1298 15.06387862132093","MEAN_MOTION":"15.06387862","CENTER_NAME":"EARTH","APOAPSIS":"548.898","LAUNCH_DATE":"2020-06-13","SITE":"AFETR","TIME_SYSTEM":"UTC","MEAN_ANOMALY":"323.1298","FILE":"3639522","SEMIMAJOR_AXIS":"6925.386","ARG_OF_PERICENTER":"36.9855","OBJECT_TYPE":"PAYLOAD"},{"CLASSIFICATION_TYPE":"U","REV_AT_EPOCH":"13213","COUNTRY_CODE":"US","PERIOD":"95.592","OBJECT_ID":"2020-038BA","INCLINATION":"53.0544","MEAN_MOTION_DOT":"0.00001493","OBJECT_NAME":"STARLINK-1491","TLE_LINE2":"2 45778  53.0544 295.1420 0001776  49.1713 310.9430 15.06398674132132","MEAN_MOTION":"15.06398674","CENTER_NAME":"EARTH","APOAPSIS":"548.448","LAUNCH_DATE":"2020-06-13","TIME_SYSTEM":"UTC","SITE":"AFETR","MEAN_ANOMALY":"310.9430","FILE":"3639522","SEMIMAJOR_AXIS":"6925.353","ARG_OF_PERICENTER":"49.1713","OBJECT_TYPE":"PAYLOAD","MEAN_ELEMENT_THEORY":"SGP4","GP_ID":"216613047","MEAN_MOTION_DDOT":"0.0000000000000","EPOCH":"2022-10-31T20:21:03.822624","RA_OF_ASC_NODE":"295.1420","RCS_SIZE":"LARGE","NORAD_CAT_ID":"45778","DECAY_DATE":null,"ECCENTRICITY":"0.00017760","PERIAPSIS":"545.988","EPHEMERIS_TYPE":"0","BSTAR":"0.00011910000000","REF_FRAME":"TEME","ELEMENT_SET_NO":"999","TLE_LINE1":"1 45778U 20038BA  22304.84796091  .00001493  00000-0  11910-3 0  9991"},{"MEAN_MOTION":"15.09064414","CENTER_NAME":"EARTH","APOAPSIS":"541.033","LAUNCH_DATE":"2020-06-13","TIME_SYSTEM":"UTC","SITE":"AFETR","MEAN_ANOMALY":"297.1396","SEMIMAJOR_AXIS":"6917.195","FILE":"3638016","ARG_OF_PERICENTER":"62.9885","OBJECT_TYPE":"PAYLOAD","CLASSIFICATION_TYPE":"U","REV_AT_EPOCH":"13207","COUNTRY_CODE":"US","PERIOD":"95.423","OBJECT_ID":"2020-038BB","INCLINATION":"53.0552","MEAN_MOTION_DOT":"0.00020043","OBJECT_NAME":"STARLINK-1492","TLE_LINE2":"2 45779  53.0552 296.6314 0002853  62.9885 297.1396 15.09064414132075","RCS_SIZE":"LARGE","NORAD_CAT_ID":"45779","DECAY_DATE":null,"ECCENTRICITY":"0.00028530","PERIAPSIS":"537.086","EPHEMERIS_TYPE":"0","REF_FRAME":"TEME","BSTAR":"0.00126590000000","ELEMENT_SET_NO":"999","TLE_LINE1":"1 45779U 20038BB  22304.39110503  .00020043  00000-0  12659-2 0  9992","MEAN_ELEMENT_THEORY":"SGP4","MEAN_MOTION_DDOT":"0.0000000000000","GP_ID":"216552633","EPOCH":"2022-10-31T09:23:11.474592","RA_OF_ASC_NODE":"296.6314"},{"MEAN_MOTION_DDOT":"0.0000000000000","GP_ID":"216552882","EPOCH":"2022-10-31T09:22:54.237792","RA_OF_ASC_NODE":"297.1866","MEAN_ELEMENT_THEORY":"SGP4","PERIAPSIS":"546.212","EPHEMERIS_TYPE":"0","BSTAR":"-0.00005042000000","REF_FRAME":"TEME","ELEMENT_SET_NO":"999","TLE_LINE1":"1 45780U 20038BC  22304.39090553 -.00001032  00000-0 -50420-4 0  9995","DECAY_DATE":null,"NORAD_CAT_ID":"45780","RCS_SIZE":"LARGE","ECCENTRICITY":"0.00014790","OBJECT_ID":"2020-038BC","INCLINATION":"53.0543","MEAN_MOTION_DOT":"-0.00001032","TLE_LINE2":"2 45780  53.0543 297.1866 0001479  63.1817 296.9323 15.06392727132060","OBJECT_NAME":"STARLINK-1496","CLASSIFICATION_TYPE":"U","COUNTRY_CODE":"US","REV_AT_EPOCH":"13206","PERIOD":"95.593","SITE":"AFETR","TIME_SYSTEM":"UTC","MEAN_ANOMALY":"296.9323","SEMIMAJOR_AXIS":"6925.371","FILE":"3638016","ARG_OF_PERICENTER":"63.1817","OBJECT_TYPE":"PAYLOAD","CENTER_NAME":"EARTH","MEAN_MOTION":"15.06392727","APOAPSIS":"548.260","LAUNCH_DATE":"2020-06-13"},{"ELEMENT_SET_NO":"999","TLE_LINE1":"1 45781U 20038BD  22304.35036127 -.00000134  00000-0  99092-5 0  9999","PERIAPSIS":"545.760","EPHEMERIS_TYPE":"0","REF_FRAME":"TEME","BSTAR":"0.00000990920000","ECCENTRICITY":"0.00021180","NORAD_CAT_ID":"45781","DECAY_DATE":null,"RCS_SIZE":"LARGE","RA_OF_ASC_NODE":"297.3912","GP_ID":"216570718","MEAN_MOTION_DDOT":"0.0000000000000","EPOCH":"2022-10-31T08:24:31.213728","MEAN_ELEMENT_THEORY":"SGP4","ARG_OF_PERICENTER":"49.2364","OBJECT_TYPE":"PAYLOAD","TIME_SYSTEM":"UTC","SITE":"AFETR","MEAN_ANOMALY":"310.8808","SEMIMAJOR_AXIS":"6925.362","FILE":"3638502","LAUNCH_DATE":"2020-06-13","CENTER_NAME":"EARTH","MEAN_MOTION":"15.06395522","APOAPSIS":"548.694","TLE_LINE2":"2 45781  53.0571 297.3912 0002118  49.2364 310.8808 15.06395522132991","OBJECT_NAME":"STARLINK-1497","OBJECT_ID":"2020-038BD","INCLINATION":"53.0571","MEAN_MOTION_DOT":"-0.00000134","PERIOD":"95.592","CLASSIFICATION_TYPE":"U","COUNTRY_CODE":"US","REV_AT_EPOCH":"13299"},{"BSTAR":"0.00124570000000","REF_FRAME":"TEME","EPHEMERIS_TYPE":"0","PERIAPSIS":"536.211","TLE_LINE1":"1 45782U 20038BE  22304.71184880  .00019965  00000-0  12457-2 0  9998","ELEMENT_SET_NO":"999","RCS_SIZE":"LARGE","DECAY_DATE":null,"NORAD_CAT_ID":"45782","ECCENTRICITY":"0.00021320","EPOCH":"2022-10-31T17:05:03.736320","GP_ID":"216613547","MEAN_MOTION_DDOT":"0.0000000000000","RA_OF_ASC_NODE":"294.7650","MEAN_ELEMENT_THEORY":"SGP4","SEMIMAJOR_AXIS":"6915.820","FILE":"3639522","TIME_SYSTEM":"UTC","SITE":"AFETR","MEAN_ANOMALY":"281.3012","OBJECT_TYPE":"PAYLOAD","ARG_OF_PERICENTER":"78.8218","APOAPSIS":"539.160","MEAN_MOTION":"15.09514178","CENTER_NAME":"EARTH","LAUNCH_DATE":"2020-06-13","INCLINATION":"53.0542","MEAN_MOTION_DOT":"0.00019965","OBJECT_ID":"2020-038BE","OBJECT_NAME":"STARLINK-1498","TLE_LINE2":"2 45782  53.0542 294.7650 0002132  78.8218 281.3012 15.09514178132141","REV_AT_EPOCH":"13214","COUNTRY_CODE":"US","CLASSIFICATION_TYPE":"U","PERIOD":"95.395"}];
